PLEIADES NEO 3          
1 48268U 21034A   26196.21158584 -.00000659  00000+0 -77173-4 0  9996
2 48268  97.8946 270.5748 0001291  94.3058 265.8303 14.81665536281809
PLEIADES NEO 4          
1 49070U 21073E   26196.17781396  .00001003  00000+0  13407-3 0  9990
2 49070  97.8945 270.5376 0001353  95.1057 265.0310 14.81674201265513
